NORAD_CAT_ID,OBJECT_NAME,OBJECT_TYPE,EPOCH,MEAN_MOTION,ECCENTRICITY,INCLINATION,RA_OF_ASC_NODE,ARG_OF_PERICENTER,MEAN_ANOMALY,BSTAR,MEAN_MOTION_DOT,MEAN_MOTION_DDOT,TLE_LINE0,TLE_LINE1,TLE_LINE2,SEMIMAJOR_AXIS,PERIOD,APOGEE,PERIGEE,DECAYED
49425.0,STARLINK-3139,PAYLOAD,2022-11-11 05:30:40,15.08845515,0.0002794,53.2159,281.0514,19.2416,340.8681,0.00066908,0.00010378,0.0,0 STARLINK-3139,1 49425U 21104T   22315.22964049  .00010378  00000-0  66908-3 0  9992,2 49425  53.2159 281.0514 0002794  19.2416 340.8681 15.08845515 56369,6917.864000000001,95.437,541.661,537.7959999999998,0.0
49425.0,STARLINK-3139,PAYLOAD,2022-11-11 10:16:50,15.08842863,0.0002946,53.2163,280.1596,23.2911,336.8214,0.00034783,5.252e-05,0.0,0 STARLINK-3139,1 49425U 21104T   22315.42836167  .00005252  00000-0  34783-3 0  9994,2 49425  53.2163 280.1596 0002946  23.2911 336.8214 15.08842863 55323,6917.871999999999,95.437,541.775,537.6990000000002,0.0
49425.0,STARLINK-3139,PAYLOAD,2022-11-11 15:03:00,15.08833041,0.0003064,53.2161,279.2675,25.9053,334.2092,-4.7776e-06,-3.65e-06,0.0,0 STARLINK-3139,1 49425U 21104T   22315.62708448 -.00000365  00000-0 -47776-5 0  9996,2 49425  53.2161 279.2675 0003064  25.9053 334.2092 15.08833041 56422,6917.901999999999,95.438,541.886,537.6469999999998,0.0
49425.0,STARLINK-3139,PAYLOAD,2022-11-12 03:46:05,15.0884663,0.0003042,53.2172,276.8882,23.632,336.4811,0.00039723,6.041e-05,0.0,0 STARLINK-3139,1 49425U 21104T   22316.15700238  .00006041  00000-0  39723-3 0  9990,2 49425  53.2172 276.8882 0003042  23.6320 336.4811 15.08846630 56505,6917.86,95.437,541.83,537.621,0.0
49425.0,STARLINK-3139,PAYLOAD,2022-11-12 10:07:37,15.08843188,0.0003045,53.2167,275.6998,19.4436,340.6672,0.00029179,4.359e-05,0.0,0 STARLINK-3139,1 49425U 21104T   22316.42196333  .00004359  00000-0  29179-3 0  9999,2 49425  53.2167 275.6998 0003045  19.4436 340.6672 15.08843188 55470,6917.871,95.437,541.842,537.629,0.0
49425.0,STARLINK-3139,PAYLOAD,2022-11-13 08:23:01,15.08849206,0.0003121,53.2165,271.5379,20.6813,339.4305,0.00024272,3.578e-05,0.0,0 STARLINK-3139,1 49425U 21104T   22317.34931810  .00003578  00000-0  24272-3 0  9999,2 49425  53.2165 271.5379 0003121  20.6813 339.4305 15.08849206 55616,6917.852,95.437,541.876,537.558,0.0
49425.0,STARLINK-3139,PAYLOAD,2022-11-14 03:27:39,15.08834403,0.0003066,53.217,267.9698,20.1847,339.9266,-3.9436e-06,-3.51e-06,0.0,0 STARLINK-3139,1 49425U 21104T   22318.14420691 -.00000351  00000-0 -39436-5 0  9996,2 49425  53.2170 267.9698 0003066  20.1847 339.9266 15.08834403 56801,6917.897,95.438,541.884,537.641,0.0
49425.0,STARLINK-3139,PAYLOAD,2022-11-14 20:56:53,15.08845722,0.0003022,53.217,264.6982,22.8981,337.2146,8.912799999999999e-05,1.13e-05,0.0,0 STARLINK-3139,1 49425U 21104T   22318.87284075  .00001130  00000-0  89128-4 0  9996,2 49425  53.2170 264.6982 0003022  22.8981 337.2146 15.08845722 56917,6917.863,95.437,541.818,537.637,0.0
49425.0,STARLINK-3139,PAYLOAD,2022-11-15 06:29:12,15.08836723,0.0003041,53.2167,262.9134,22.1119,338.0004,0.00010926,1.451e-05,0.0,0 STARLINK-3139,1 49425U 21104T   22319.27028705  .00001451  00000-0  10926-3 0  9992,2 49425  53.2167 262.9134 0003041  22.1119 338.0004 15.08836723 56979,6917.89,95.438,541.859,537.6519999999998,0.0
49425.0,STARLINK-3139,PAYLOAD,2022-11-15 12:50:45,15.08844049,0.0003039,53.2167,261.7243,22.6527,337.4599,0.00022373,3.274e-05,0.0,0 STARLINK-3139,1 49425U 21104T   22319.53524479  .00003274  00000-0  22373-3 0  9994,2 49425  53.2167 261.7243 0003039  22.6527 337.4599 15.08844049 55940,6917.868,95.437,541.835,537.631,0.0
49425.0,STARLINK-3139,PAYLOAD,2022-11-16 07:55:22,15.08843414,0.0003047,53.2166,258.1562,23.189,336.9239,0.00013104,1.798e-05,0.0,0 STARLINK-3139,1 49425U 21104T   22320.33012459  .00001798  00000-0  13104-3 0  9995,2 49425  53.2166 258.1562 0003047  23.1890 336.9239 15.08843414 57134,6917.87,95.437,541.8430000000002,537.627,0.0
49425.0,STARLINK-3139,PAYLOAD,2022-11-17 03:00:00,15.08835874,0.000298,53.2166,254.5879,25.3367,334.7771,8.7165e-05,1.099e-05,0.0,0 STARLINK-3139,1 49425U 21104T   22321.12500854  .00001099  00000-0  87165-4 0  9997,2 49425  53.2166 254.5879 0002980  25.3367 334.7771 15.08835874 57254,6917.893,95.438,541.82,537.696,0.0
49425.0,STARLINK-3139,PAYLOAD,2022-11-17 07:46:10,15.08836825,0.0003252,53.2165,253.6955,20.3002,339.8119,0.0001358,1.873e-05,0.0,0 STARLINK-3139,1 49425U 21104T   22321.32372928  .00001873  00000-0  13580-3 0  9997,2 49425  53.2165 253.6955 0003252  20.3002 339.8119 15.08836825 56216,6917.89,95.438,542.005,537.505,0.0
49425.0,STARLINK-3139,PAYLOAD,2022-11-18 06:01:34,15.08841559,0.0003086,53.2166,249.5324,24.9516,335.1625,0.00011301,1.511e-05,0.0,0 STARLINK-3139,1 49425U 21104T   22322.25108907  .00001511  00000-0  11301-3 0  9992,2 49425  53.2166 249.5324 0003086  24.9516 335.1625 15.08841559 57421,6917.876,95.437,541.875,537.606,0.0
49425.0,STARLINK-3139,PAYLOAD,2022-11-18 12:23:06,15.08837364,0.0003105,53.2169,248.3423,26.0377,334.0771,4.9733e-05,5.03e-06,0.0,0 STARLINK-3139,1 49425U 21104T   22322.51605285  .00000503  00000-0  49733-4 0  9993,2 49425  53.2169 248.3423 0003105  26.0377 334.0771 15.08837364 56395,6917.888000000001,95.438,541.901,537.605,0.0
49425.0,STARLINK-3139,PAYLOAD,2022-11-19 04:16:58,15.08842375,0.0003122,53.2166,245.3689,25.7852,334.3295,0.00013261,1.823e-05,0.0,0 STARLINK-3139,1 49425U 21104T   22323.17845277  .00001823  00000-0  13261-3 0  9995,2 49425  53.2166 245.3689 0003122  25.7852 334.3295 15.08842375 56499,6917.873000000001,95.437,541.898,537.578,0.0
49425.0,STARLINK-3139,PAYLOAD,2022-11-19 12:13:53,15.08850834,0.0003115,53.2166,243.8821,26.6979,333.4173,0.00025066,3.704e-05,0.0,0 STARLINK-3139,1 49425U 21104T   22323.50964824  .00003704  00000-0  25066-3 0  9998,2 49425  53.2166 243.8821 0003115  26.6979 333.4173 15.08850834 57611,6917.847,95.437,541.867,537.557,0.0
49425.0,STARLINK-3139,PAYLOAD,2022-11-20 04:07:44,15.08849242,0.0003103,53.2168,240.9084,26.3496,333.7653,0.00016665,2.365e-05,0.0,0 STARLINK-3139,1 49425U 21104T   22324.17204710  .00002365  00000-0  16665-3 0  9990,2 49425  53.2168 240.9084 0003103  26.3496 333.7653 15.08849242 57718,6917.852,95.437,541.864,537.571,0.0
49425.0,STARLINK-3139,PAYLOAD,2022-11-20 18:26:13,15.08837995,0.0003203,53.217,238.2323,27.5472,332.5689,6.2625e-05,7.08e-06,0.0,0 STARLINK-3139,1 49425U 21104T   22324.76821466  .00000708  00000-0  62625-4 0  9995,2 49425  53.2170 238.2323 0003203  27.5472 332.5689 15.08837995 57803,6917.887,95.438,541.967,537.536,0.0
49425.0,STARLINK-3139,PAYLOAD,2022-11-21 03:58:32,15.08831391,0.0003046,53.2171,236.4479,26.8814,333.2335,-0.00011923,-2.185e-05,0.0,0 STARLINK-3139,1 49425U 21104T   22325.16565788 -.00002185  00000-0 -11923-3 0  9999,2 49425  53.2171 236.4479 0003046  26.8814 333.2335 15.08831391 57869,6917.906999999997,95.438,541.879,537.665,0.0
49425.0,STARLINK-3139,PAYLOAD,2022-11-22 03:49:19,15.0884494,0.000308,53.2167,231.988,30.4922,329.6249,0.00028827,4.303e-05,0.0,0 STARLINK-3139,1 49425U 21104T   22326.15925423  .00004303  00000-0  28827-3 0  9998,2 49425  53.2167 231.9880 0003080  30.4922 329.6249 15.08844940 58014,6917.865,95.437,541.861,537.6,0.0
49425.0,STARLINK-3139,PAYLOAD,2022-11-22 18:07:48,15.08838626,0.0003202,53.2168,229.3124,27.1466,332.9693,0.00012418,1.688e-05,0.0,0 STARLINK-3139,1 49425U 21104T   22326.75541920  .00001688  00000-0  12418-3 0  9992,2 49425  53.2168 229.3124 0003202  27.1466 332.9693 15.08838626 58103,6917.885,95.438,541.965,537.534,0.0
49425.0,STARLINK-3139,PAYLOAD,2022-11-23 10:01:39,15.08849342,0.0003225,53.2167,226.3386,28.3908,331.7259,0.00029556,4.42e-05,0.0,0 STARLINK-3139,1 49425U 21104T   22327.41781498  .00004420  00000-0  29556-3 0  9990,2 49425  53.2167 226.3386 0003225  28.3908 331.7259 15.08849342 57132,6917.852,95.437,541.948,537.486,0.0
49425.0,STARLINK-3139,PAYLOAD,2022-11-23 17:58:34,15.0884858,0.0003145,53.2166,224.8513,28.9555,331.1611,0.00019776,2.861e-05,0.0,0 STARLINK-3139,1 49425U 21104T   22327.74901413  .00002861  00000-0  19776-3 0  9997,2 49425  53.2166 224.8513 0003145  28.9555 331.1611 15.08848580 57185,6917.854,95.437,541.895,537.543,0.0
49425.0,STARLINK-3139,PAYLOAD,2022-11-24 03:30:53,15.08844345,0.0003164,53.2164,223.0675,27.9434,332.1728,6.7893e-05,7.92e-06,0.0,0 STARLINK-3139,1 49425U 21104T   22328.14645411  .00000792  00000-0  67893-4 0  9990,2 49425  53.2164 223.0675 0003164  27.9434 332.1728 15.08844345 58310,6917.8669999999975,95.437,541.9209999999998,537.543,0.0
49425.0,STARLINK-3139,PAYLOAD,2022-11-24 16:13:59,15.08834097,0.0003252,53.2161,220.6884,27.6093,332.5071,-5.7098e-05,-1.197e-05,0.0,0 STARLINK-3139,1 49425U 21104T   22328.67638113 -.00001197  00000-0 -57098-4 0  9997,2 49425  53.2161 220.6884 0003252  27.6093 332.5071 15.08834097 58394,6917.898,95.438,542.013,537.514,0.0
49425.0,STARLINK-3139,PAYLOAD,2022-11-25 01:46:18,15.08830729,0.0003041,53.2177,218.9043,26.5692,333.5456,-1.5128e-05,-5.29e-06,0.0,0 STARLINK-3139,1 49425U 21104T   22329.07382931 -.00000529  00000-0 -15128-4 0  9992,2 49425  53.2177 218.9043 0003041  26.5692 333.5456 15.08830729 58450,6917.909000000002,95.438,541.877,537.67,0.0
49425.0,STARLINK-3139,PAYLOAD,2022-11-25 09:43:14,15.08830817,0.0003197,53.2179,217.4178,26.4822,333.6333,-3.6612e-05,-8.71e-06,0.0,0 STARLINK-3139,1 49425U 21104T   22329.40503133 -.00000871  00000-0 -36612-4 0  9999,2 49425  53.2179 217.4178 0003197  26.4822 333.6333 15.08830817 57431,6917.908,95.438,541.985,537.562,0.0
49425.0,STARLINK-3139,PAYLOAD,2022-11-25 17:40:10,15.08833734,0.0003186,53.217,215.9308,26.725,333.3906,5.656800000000001e-05,6.12e-06,0.0,0 STARLINK-3139,1 49425U 21104T   22329.73622941  .00000612  00000-0  56568-4 0  9997,2 49425  53.2170 215.9308 0003186  26.7250 333.3906 15.08833734 57485,6917.9,95.438,541.969,537.56,0.0
